{
  "norad_id": 56699,
  "name": "STARLINK-30127",
  "history": [
    {
      "epoch": "2026-03-28T14:28:04.270080",
      "apogee_km": 560.4504573571685,
      "perigee_km": 557.7782281399404,
      "latitude_deg": -24.274185413261428,
      "longitude_deg": -92.22858879994601,
      "semi_major_axis_km": 6937.251342748554,
      "eccentricity": 0.0001926,
      "inclination_deg": 43.0042,
      "raan_deg": 171.8149,
      "arg_perigee_deg": 271.9749,
      "mean_anomaly_deg": 88.0873,
      "mean_motion_rev_day": 15.02524691
    }
  ]
}