{"fetched_at":"2026-03-29T02:12:04Z","count":15717,"tles":[{"name":"STARLINK-30127","line1":"1 56699U 23067M   26087.60282720 -.00000795  00000+0 -43802-4 0  9996","line2":"2 56699  43.0042 171.8149 0001925 271.9749  88.0873 15.02524691158505","category":"Starlink"}]}